{
  "norad_id": 63671,
  "name": "STARLINK-11603 [DTC]",
  "history": [
    {
      "epoch": "2026-03-28T21:50:24.750816",
      "apogee_km": 358.43700258533227,
      "perigee_km": 354.24277038043056,
      "latitude_deg": 31.977504117802873,
      "longitude_deg": -85.53916575969197,
      "semi_major_axis_km": 6734.476886482881,
      "eccentricity": 0.0003114,
      "inclination_deg": 43.0012,
      "raan_deg": 162.6554,
      "arg_perigee_deg": 52.1979,
      "mean_anomaly_deg": 307.9171,
      "mean_motion_rev_day": 15.70894293
    }
  ]
}